[
    {
        "Altitude(m)": 564215.2156096152,
        "Argument of Periapsis(deg)": 0.006622991110713501,
        "Eccentricity": 0.0,
        "Inclination(deg)": 53.0,
        "Latitude(deg)": -34.344509433952076,
        "Longitude(deg)": -154.9704160044191,
        "Mean Anomaly(deg)": 224.63709286757756,
        "RAAN(deg)": 94.99014336852802,
        "Satellite Name": "Starlink Shell 1 431",
        "Satellite Number": 431,
        "Semi-Major Axis(m)": 6931778.249405717,
        "Time(s)": 190
    },
    {
        "Altitude(m)": 564388.4988285549,
        "Argument of Periapsis(deg)": 0.0069715695902247375,
        "Eccentricity": 0.0,
        "Inclination(deg)": 53.0,
        "Latitude(deg)": -34.77381365954194,
        "Longitude(deg)": -154.45881210209765,
        "Mean Anomaly(deg)": 225.26392407113428,
        "RAAN(deg)": 94.98962459845055,
        "Satellite Name": "Starlink Shell 1 431",
        "Satellite Number": 431,
        "Semi-Major Axis(m)": 6931778.249405717,
        "Time(s)": 200
    },
    {
        "Altitude(m)": 564561.2280683173,
        "Argument of Periapsis(deg)": 0.007320148069735974,
        "Eccentricity": 0.0,
        "Inclination(deg)": 53.0,
        "Latitude(deg)": -35.200539378805004,
        "Longitude(deg)": -153.9414893375749,
        "Mean Anomaly(deg)": 225.89075527469106,
        "RAAN(deg)": 94.98910582837307,
        "Satellite Name": "Starlink Shell 1 431",
        "Satellite Number": 431,
        "Semi-Major Axis(m)": 6931778.249405717,
        "Time(s)": 210
    },
    {
        "Altitude(m)": 564733.3371602474,
        "Argument of Periapsis(deg)": 0.007668726549247212,
        "Eccentricity": 0.0,
        "Inclination(deg)": 53.0,
        "Latitude(deg)": -35.62461999406336,
        "Longitude(deg)": -153.4183313511137,
        "Mean Anomaly(deg)": 226.51758647824775,
        "RAAN(deg)": 94.9885870582956,
        "Satellite Name": "Starlink Shell 1 431",
        "Satellite Number": 431,
        "Semi-Major Axis(m)": 6931778.249405717,
        "Time(s)": 220
    },
    {
        "Altitude(m)": 564904.7600667367,
        "Argument of Periapsis(deg)": 0.00801730502875845,
        "Eccentricity": 0.0,
        "Inclination(deg)": 53.0,
        "Latitude(deg)": -36.045987379572686,
        "Longitude(deg)": -152.88922106978592,
        "Mean Anomaly(deg)": 227.14441768180447,
        "RAAN(deg)": 94.98806828821813,
        "Satellite Name": "Starlink Shell 1 431",
        "Satellite Number": 431,
        "Semi-Major Axis(m)": 6931778.249405717,
        "Time(s)": 230
    },
    {
        "Altitude(m)": 565075.4309106597,
        "Argument of Periapsis(deg)": 0.008365883508269684,
        "Eccentricity": 0.0,
        "Inclination(deg)": 53.0,
        "Latitude(deg)": -36.464571850814366,
        "Longitude(deg)": -152.3540402972504,
        "Mean Anomaly(deg)": 227.77124888536116,
        "RAAN(deg)": 94.98754951814067,
        "Satellite Name": "Starlink Shell 1 431",
        "Satellite Number": 431,
        "Semi-Major Axis(m)": 6931778.249405717,
        "Time(s)": 240
    },
    {
        "Altitude(m)": 565245.2840047815,
        "Argument of Periapsis(deg)": 0.008714461987780921,
        "Eccentricity": 0.0,
        "Inclination(deg)": 53.0,
        "Latitude(deg)": -36.88030213447589,
        "Longitude(deg)": -151.81267082600286,
        "Mean Anomaly(deg)": 228.3980800889179,
        "RAAN(deg)": 94.98703074806319,
        "Satellite Name": "Starlink Shell 1 431",
        "Satellite Number": 431,
        "Semi-Major Axis(m)": 6931778.249405717,
        "Time(s)": 250
    },
    {
        "Altitude(m)": 565414.2538810405,
        "Argument of Periapsis(deg)": 0.009063040467292158,
        "Eccentricity": 0.0,
        "Inclination(deg)": 53.0,
        "Latitude(deg)": -37.29310533926767,
        "Longitude(deg)": -151.2649940469072,
        "Mean Anomaly(deg)": 229.02491129247463,
        "RAAN(deg)": 94.98651197798571,
        "Satellite Name": "Starlink Shell 1 431",
        "Satellite Number": 431,
        "Semi-Major Axis(m)": 6931778.249405717,
        "Time(s)": 260
    },
    {
        "Altitude(m)": 565582.2753197139,
        "Argument of Periapsis(deg)": 0.009411618946803396,
        "Eccentricity": 0.0,
        "Inclination(deg)": 53.0,
        "Latitude(deg)": -37.70290692772856,
        "Longitude(deg)": -150.71089056945755,
        "Mean Anomaly(deg)": 229.65174249603132,
        "RAAN(deg)": 94.98599320790824,
        "Satellite Name": "Starlink Shell 1 431",
        "Satellite Number": 431,
        "Semi-Major Axis(m)": 6931778.249405717,
        "Time(s)": 270
    },
    {
        "Altitude(m)": 565749.2833784721,
        "Argument of Periapsis(deg)": 0.009760197426314633,
        "Eccentricity": 0.0,
        "Inclination(deg)": 53.0,
        "Latitude(deg)": -38.10963068918645,
        "Longitude(deg)": -150.1502413662264,
        "Mean Anomaly(deg)": 230.27857369958804,
        "RAAN(deg)": 94.98547443783076,
        "Satellite Name": "Starlink Shell 1 431",
        "Satellite Number": 431,
        "Semi-Major Axis(m)": 6931778.249405717,
        "Time(s)": 280
    },
    {
        "Altitude(m)": 565915.213421275,
        "Argument of Periapsis(deg)": 0.01010877590582587,
        "Eccentricity": 0.0,
        "Inclination(deg)": 53.0,
        "Latitude(deg)": -38.51319871405956,
        "Longitude(deg)": -149.5829274163439,
        "Mean Anomaly(deg)": 230.90540490314473,
        "RAAN(deg)": 94.9849556677533,
        "Satellite Name": "Starlink Shell 1 431",
        "Satellite Number": 431,
        "Semi-Major Axis(m)": 6931778.249405717,
        "Time(s)": 290
    },
    {
        "Altitude(m)": 566080.0011471304,
        "Argument of Periapsis(deg)": 0.010457354385337106,
        "Eccentricity": 0.0,
        "Inclination(deg)": 53.0,
        "Latitude(deg)": -38.91353136969131,
        "Longitude(deg)": -149.00882936148022,
        "Mean Anomaly(deg)": 231.53223610670145,
        "RAAN(deg)": 94.98443689767583,
        "Satellite Name": "Starlink Shell 1 431",
        "Satellite Number": 431,
        "Semi-Major Axis(m)": 6931778.249405717,
        "Time(s)": 300
    },
    {
        "Altitude(m)": 566243.5826186683,
        "Argument of Periapsis(deg)": 0.010805932864848343,
        "Eccentricity": 0.0,
        "Inclination(deg)": 53.0,
        "Latitude(deg)": -39.31054727792386,
        "Longitude(deg)": -148.427828687806,
        "Mean Anomaly(deg)": 232.1590673102582,
        "RAAN(deg)": 94.98391812759836,
        "Satellite Name": "Starlink Shell 1 431",
        "Satellite Number": 431,
        "Semi-Major Axis(m)": 6931778.249405717,
        "Time(s)": 310
    },
    {
        "Altitude(m)": 566405.8942905742,
        "Argument of Periapsis(deg)": 0.01115451134435958,
        "Eccentricity": 0.0,
        "Inclination(deg)": 53.0,
        "Latitude(deg)": -39.70416329464003,
        "Longitude(deg)": -147.83980740877925,
        "Mean Anomaly(deg)": 232.78589851381489,
        "RAAN(deg)": 94.98339935752087,
        "Satellite Name": "Starlink Shell 1 431",
        "Satellite Number": 431,
        "Semi-Major Axis(m)": 6931778.249405717,
        "Time(s)": 320
    },
    {
        "Altitude(m)": 566566.8730377706,
        "Argument of Periapsis(deg)": 0.011503089823870818,
        "Eccentricity": 0.0,
        "Inclination(deg)": 53.0,
        "Latitude(deg)": -40.094294491508705,
        "Longitude(deg)": -147.2446477622257,
        "Mean Anomaly(deg)": 233.41272971737163,
        "RAAN(deg)": 94.9828805874434,
        "Satellite Name": "Starlink Shell 1 431",
        "Satellite Number": 431,
        "Semi-Major Axis(m)": 6931778.249405717,
        "Time(s)": 330
    },
    {
        "Altitude(m)": 566726.4561834455,
        "Argument of Periapsis(deg)": 0.011851668303382053,
        "Eccentricity": 0.0,
        "Inclination(deg)": 53.0,
        "Latitude(deg)": -40.48085414018467,
        "Longitude(deg)": -146.64223343516508,
        "Mean Anomaly(deg)": 234.03956092092832,
        "RAAN(deg)": 94.98236181736593,
        "Satellite Name": "Starlink Shell 1 431",
        "Satellite Number": 431,
        "Semi-Major Axis(m)": 6931778.249405717,
        "Time(s)": 340
    },
    {
        "Altitude(m)": 566884.5815268577,
        "Argument of Periapsis(deg)": 0.012200246782893292,
        "Eccentricity": 0.0,
        "Inclination(deg)": 53.0,
        "Latitude(deg)": -40.863753699236874,
        "Longitude(deg)": -146.03244929119657,
        "Mean Anomaly(deg)": 234.66639212448501,
        "RAAN(deg)": 94.98184304728845,
        "Satellite Name": "Starlink Shell 1 431",
        "Satellite Number": 431,
        "Semi-Major Axis(m)": 6931778.249405717,
        "Time(s)": 350
    },
    {
        "Altitude(m)": 567041.1873708811,
        "Argument of Periapsis(deg)": 0.012548825262404526,
        "Eccentricity": 0.0,
        "Inclination(deg)": 53.0,
        "Latitude(deg)": -41.24290280408843,
        "Longitude(deg)": -145.4151811138518,
        "Mean Anomaly(deg)": 235.2932233280418,
        "RAAN(deg)": 94.98132427721099,
        "Satellite Name": "Starlink Shell 1 431",
        "Satellite Number": 431,
        "Semi-Major Axis(m)": 6931778.249405717,
        "Time(s)": 360
    },
    {
        "Altitude(m)": 567196.2125493556,
        "Argument of Periapsis(deg)": 0.012897403741915765,
        "Eccentricity": 0.0,
        "Inclination(deg)": 53.0,
        "Latitude(deg)": -41.61820926026366,
        "Longitude(deg)": -144.7903168792963,
        "Mean Anomaly(deg)": 235.92005453159848,
        "RAAN(deg)": 94.98080550713351,
        "Satellite Name": "Starlink Shell 1 431",
        "Satellite Number": 431,
        "Semi-Major Axis(m)": 6931778.249405717,
        "Time(s)": 370
    }
]